[{"OBJECT_NAME":"TIANQI-17","OBJECT_ID":"2025-105B","EPOCH":"2026-03-09T16:13:53.676480","MEAN_MOTION":13.99116409,"ECCENTRICITY":0.0011901,"INCLINATION":44.9793,"RA_OF_ASC_NODE":104.4582,"ARG_OF_PERICENTER":269.8023,"MEAN_ANOMALY":90.1446,"EPHEMERIS_TYPE":0,"CLASSIFICATION_TYPE":"U","NORAD_CAT_ID":64059,"ELEMENT_SET_NO":999,"REV_AT_EPOCH":4126,"BSTAR":0.0001561646,"MEAN_MOTION_DOT":9.9e-7,"MEAN_MOTION_DDOT":0},{"OBJECT_NAME":"THOR ABLESTAR DEB","OBJECT_ID":"1961-015DG","EPOCH":"2026-03-09T16:42:22.493952","MEAN_MOTION":14.06628155,"ECCENTRICITY":0.00494915,"INCLINATION":66.9792,"RA_OF_ASC_NODE":191.4514,"ARG_OF_PERICENTER":200.4327,"MEAN_ANOMALY":159.4783,"EPHEMERIS_TYPE":0,"CLASSIFICATION_TYPE":"U","NORAD_CAT_ID":330,"ELEMENT_SET_NO":999,"REV_AT_EPOCH":28271,"BSTAR":0.00069648203,"MEAN_MOTION_DOT":1.091e-5,"MEAN_MOTION_DDOT":0}]
